DUBAISAT-1              
1 35682U 09041B   26179.95958640  .00000863  00000+0  13537-3 0  9997
2 35682  98.0064 313.0890 0011133  39.5558 320.6461 14.75142024906839
OCEANSAT-2              
1 35931U 09051A   26179.92323839 -.00000232  00000+0 -13272-3 0  9996
2 35931  98.2319 165.6035 0016164 201.0211 159.0293 13.99660590880975
WORLDVIEW-2 (WV-2)      
1 35946U 09055A   26179.92383107  .00000108  00000+0  50227-4 0  9992
2 35946  98.4764 253.2124 0004457 171.8520 188.2741 14.37902569877335
SMOS                    
1 36036U 09059A   26179.93426354  .00000234  00000+0  88445-4 0  9993
2 36036  98.4424   7.0971 0001315  88.2585 271.8754 14.39778643875142
YAOGAN-7                
1 36110U 09069A   26179.66534556  .00000459  00000+0  70586-4 0  9997
2 36110  98.0059  65.4609 0024746   5.7212 354.4277 14.78020741891323
TANDEM-X                
1 36605U 10030A   26179.52106836  .00000368  00000+0  20706-4 0  9995
2 36605  97.4452 187.0658 0001714  96.0250 264.1180 15.19148500888362
CARTOSAT-2B             
1 36795U 10035A   26179.91118338  .00000911  00000+0  13135-3 0  9994
2 36795  97.9954 230.3862 0012164 146.6328 213.5652 14.78676601861581
YAOGAN-10               
1 36834U 10038A   26179.99931137  .00000818  00000+0  10136-3 0  9993
2 36834  97.8973 203.3090 0001663  85.5334 303.7890 14.85381507858968
COSMO-SKYMED 4          
1 37216U 10060A   26179.98805385  .00000393  00000+0  55865-4 0  9994
2 37216  97.8883   3.4169 0001442  85.3006 274.8372 14.82153920846310
RESOURCESAT-2           
1 37387U 11015A   26179.91333233  .00000092  00000+0  61965-4 0  9999
2 37387  98.7640 247.2740 0010647 218.6278 141.4139 14.21602520787842
HAIYANG-2A              
1 37781U 11043A   26179.97872429 -.00000128  00000+0 -89673-4 0  9997
2 37781  99.3391 182.3904 0004930  67.2592 292.9078 13.74024831748274
RASAT                   
1 37791U 11044D   26179.97800124  .00000387  00000+0  75607-4 0  9999
2 37791  98.0582 271.1951 0021083 151.4874 323.3817 14.68176647794918
SRMSAT                  
1 37841U 11058D   26179.80720552  .00000372  00000+0  58225-4 0  9999
2 37841  19.9735 349.1375 0011749 332.2433  55.7265 14.11577875759460
PLEIADES 1A             
1 38012U 11076F   26180.00561549  .00000128  00000+0  37444-4 0  9992
2 38012  98.1981 254.9497 0001786  89.3049  34.3739 14.58537257773718
ZIYUAN 1-02C (ZY 1-02C) 
1 38038U 11079A   26179.97988823  .00000167  00000+0  69143-4 0  9999
2 38038  98.4075 247.0417 0005124 274.0327 187.8647 14.38223048760907
ARIRANG-3 (KOMPSAT-3)   
1 38338U 12025B   26179.93959490  .00000417  00000+0  91979-4 0  9998
2 38338  98.1176 137.1969 0006801  80.0972 280.0997 14.62216089753061
EXACTVIEW-1 (ADS-1B)    
1 38709U 12039C   26179.89660208  .00000105  00000+0  64627-4 0  9990
2 38709  98.9790 297.5519 0011692 134.3379 225.8760 14.24987873724374
SPOT 6                  
1 38755U 12047A   26179.92875453  .00000166  00000+0  45581-4 0  9999
2 38755  98.2123 247.1001 0001297  75.6648 284.4695 14.58528701734761
PLEIADES 1B             
1 39019U 12068A   26179.94755905  .00000171  00000+0  46595-4 0  9999
2 39019  98.1951 254.8371 0001717  85.4377 274.7018 14.58566888722567
GOKTURK 2               
1 39030U 12073A   26179.94802958  .00000538  00000+0  85901-4 0  9990
2 39030  97.6814  16.7902 0001149  59.4634 300.6689 14.75554627726242
LANDSAT 8               
1 39084U 13008A   26179.90467221  .00000306  00000+0  77953-4 0  9995
2 39084  98.2299 249.9006 0001351  93.6632 266.4721 14.57101886699603
SARAL                   
1 39086U 13009A   26179.91211906  .00000069  00000+0  41320-4 0  9991
2 39086  98.5557   6.3308 0000800 218.2301 141.8826 14.32858630697284
GAOFEN-1                
1 39150U 13018A   26179.98999321  .00000413  00000+0  66363-4 0  9991
2 39150  97.9099 251.8181 0015975 225.0057 134.9859 14.76548885709985
VNREDSAT 1              
1 39160U 13021B   26179.97440315  .00000277  00000+0  60326-4 0  9990
2 39160  97.9081 232.9381 0001738  83.5145 276.6256 14.64867469702017
ARIRANG-5 (KOMPSAT-5)   
1 39227U 13042A   26179.93816704  .00002231  00000+0  16356-3 0  9997
2 39227  97.6187   6.4726 0005086  94.9635 265.2172 15.04523022705622
SKYSAT-A                
1 39418U 13066C   26179.69880525  .00002678  00000+0  15456-3 0  9995
2 39418  97.3809 228.7291 0019651 274.4868  85.4118 15.13033516690229
DUBAISAT-2              
1 39419U 13066D   26179.93085192  .00003688  00000+0  22887-3 0  9998
2 39419  97.4556 169.7675 0010999   2.3405 357.7874 15.10264380688167
GPM-CORE                
1 39574U 14009C   26179.79842789  .00009615  00000+0  20882-3 0  9994
2 39574  64.9722 269.2330 0011380 256.2780 103.7094 15.44810702699604
SENTINEL-1A             
1 39634U 14016A   26179.95605681  .00000034  00000+0  16920-4 0  9990
2 39634  98.1775 187.3167 0001355  84.7020 275.4334 14.59198658651738
KAZEOSAT 1              
1 39731U 14024A   26179.95583209  .00000047  00000+0  27220-4 0  9997
2 39731  98.3210 252.1104 0001212  76.2905 283.8420 14.42083900640253
