OBJECT_NAME,OBJECT_ID,EPOCH,MEAN_MOTION,ECCENTRICITY,INCLINATION,RA_OF_ASC_NODE,ARG_OF_PERICENTER,MEAN_ANOMALY,EPHEMERIS_TYPE,CLASSIFICATION_TYPE,NORAD_CAT_ID,ELEMENT_SET_NO,REV_AT_EPOCH,BSTAR,MEAN_MOTION_DOT,MEAN_MOTION_DDOT
DUBAISAT-1,2009-041B,2026-06-28T23:01:48.264960,14.75142024,.00111338,98.0064,313.0890,39.5558,320.6461,0,U,35682,999,90683,.13536757E-3,.863E-5,0
OCEANSAT-2,2009-051A,2026-06-28T22:09:27.796896,13.99660590,.00161641,98.2319,165.6035,201.0211,159.0293,0,U,35931,999,88097,-.13271767E-3,-.232E-5,0
WORLDVIEW-2 (WV-2),2009-055A,2026-06-28T22:10:19.004448,14.37902569,.00044576,98.4764,253.2124,171.8520,188.2741,0,U,35946,999,87733,.50226778E-4,.108E-5,0
SMOS,2009-059A,2026-06-28T22:25:20.369856,14.39778643,.00013157,98.4424,7.0971,88.2585,271.8754,0,U,36036,999,87514,.8844531E-4,.234E-5,0
YAOGAN-7,2009-069A,2026-06-28T15:58:05.856384,14.78020741,.0024746,98.0059,65.4609,5.7212,354.4277,0,U,36110,999,89132,.70585707E-4,.459E-5,0
TANDEM-X,2010-030A,2026-06-28T12:30:20.306304,15.19148500,.00017143,97.4452,187.0658,96.0250,264.1180,0,U,36605,999,88836,.2070632E-4,.368E-5,0
CARTOSAT-2B,2010-035A,2026-06-28T21:52:06.244032,14.78676601,.00121647,97.9954,230.3862,146.6328,213.5652,0,U,36795,999,86158,.13135168E-3,.911E-5,0
YAOGAN-10,2010-038A,2026-06-28T23:59:00.502368,14.85381507,.00016631,97.8973,203.3090,85.5334,303.7890,0,U,36834,999,85896,.10135715E-3,.818E-5,0
COSMO-SKYMED 4,2010-060A,2026-06-28T23:42:47.852640,14.82153920,.0001442,97.8883,3.4169,85.3006,274.8372,0,U,37216,999,84631,.55864895E-4,.393E-5,0
RESOURCESAT-2,2011-015A,2026-06-28T21:55:11.913312,14.21602520,.00106471,98.7640,247.2740,218.6278,141.4139,0,U,37387,999,78784,.61964542E-4,.92E-6,0
HAIYANG-2A,2011-043A,2026-06-28T23:29:21.778656,13.74024831,.00049302,99.3391,182.3904,67.2592,292.9078,0,U,37781,999,74827,-.89672937E-4,-.128E-5,0
RASAT,2011-044D,2026-06-28T23:28:19.307136,14.68176647,.00210839,98.0582,271.1951,151.4874,323.3817,0,U,37791,999,79491,.75607173E-4,.387E-5,0
SRMSAT,2011-058D,2026-06-28T19:22:22.556928,14.11577875,.00117497,19.9735,349.1375,332.2433,55.7265,0,U,37841,999,75946,.58225428E-4,.372E-5,0
PLEIADES 1A,2011-076F,2026-06-29T00:08:05.178336,14.58537257,.00017869,98.1981,254.9497,89.3049,34.3739,0,U,38012,999,77371,.374438E-4,.128E-5,0
ZIYUAN 1-02C (ZY 1-02C),2011-079A,2026-06-28T23:31:02.343072,14.38223048,.00051243,98.4075,247.0417,274.0327,187.8647,0,U,38038,999,76090,.69143229E-4,.167E-5,0
ARIRANG-3 (KOMPSAT-3),2012-025B,2026-06-28T22:33:00.999360,14.62216089,.0006801,98.1176,137.1969,80.0972,280.0997,0,U,38338,999,75306,.91979023E-4,.417E-5,0
EXACTVIEW-1 (ADS-1B),2012-039C,2026-06-28T21:31:06.419712,14.24987873,.00116929,98.9790,297.5519,134.3379,225.8760,0,U,38709,999,72437,.64627446E-4,.105E-5,0
SPOT 6,2012-047A,2026-06-28T22:17:24.391392,14.58528701,.00012978,98.2123,247.1001,75.6648,284.4695,0,U,38755,999,73476,.45580738E-4,.166E-5,0
PLEIADES 1B,2012-068A,2026-06-28T22:44:29.101920,14.58566888,.00017179,98.1951,254.8371,85.4377,274.7018,0,U,39019,999,72256,.46594981E-4,.171E-5,0
GOKTURK 2,2012-073A,2026-06-28T22:45:09.755712,14.75554627,.00011497,97.6814,16.7902,59.4634,300.6689,0,U,39030,999,72624,.8590113E-4,.538E-5,0
LANDSAT 8,2013-008A,2026-06-28T21:42:43.678944,14.57101886,.00013511,98.2299,249.9006,93.6632,266.4721,0,U,39084,999,69960,.77952829E-4,.306E-5,0
SARAL,2013-009A,2026-06-28T21:53:27.086784,14.32858630,.00008,98.5557,6.3308,218.2301,141.8826,0,U,39086,999,69728,.41320144E-4,.69E-6,0
GAOFEN-1,2013-018A,2026-06-28T23:45:35.413344,14.76548885,.00159759,97.9099,251.8181,225.0057,134.9859,0,U,39150,999,70998,.663626E-4,.413E-5,0
VNREDSAT 1,2013-021B,2026-06-28T23:23:08.432160,14.64867469,.0001738,97.9081,232.9381,83.5145,276.6256,0,U,39160,999,70201,.60325775E-4,.277E-5,0
ARIRANG-5 (KOMPSAT-5),2013-042A,2026-06-28T22:30:57.632256,15.04523022,.00050864,97.6187,6.4726,94.9635,265.2172,0,U,39227,999,70562,.16356046E-3,.2231E-4,0
SKYSAT-A,2013-066C,2026-06-28T16:46:16.773600,15.13033516,.00196511,97.3809,228.7291,274.4868,85.4118,0,U,39418,999,69022,.15456208E-3,.2678E-4,0
DUBAISAT-2,2013-066D,2026-06-28T22:20:25.605888,15.10264380,.00109995,97.4556,169.7675,2.3405,357.7874,0,U,39419,999,68816,.22887245E-3,.3688E-4,0
GPM-CORE,2014-009C,2026-06-28T19:09:44.169696,15.44810702,.00113804,64.9722,269.2330,256.2780,103.7094,0,U,39574,999,69960,.20881911E-3,.9615E-4,0
SENTINEL-1A,2014-016A,2026-06-28T22:56:43.308384,14.59198658,.00013551,98.1775,187.3167,84.7020,275.4334,0,U,39634,999,65173,.16920066E-4,.34E-6,0
KAZEOSAT 1,2014-024A,2026-06-28T22:56:23.892576,14.42083900,.0001212,98.3210,252.1104,76.2905,283.8420,0,U,39731,999,64025,.2721954E-4,.47E-6,0
